[{"OBJECT_NAME":"ONEWEB-0474","OBJECT_ID":"2022-012AJ","EPOCH":"2026-03-09T23:32:06.894240","MEAN_MOTION":13.10371854,"ECCENTRICITY":0.00017292,"INCLINATION":87.878,"RA_OF_ASC_NODE":56.0058,"ARG_OF_PERICENTER":95.0915,"MEAN_ANOMALY":265.0409,"EPHEMERIS_TYPE":0,"CLASSIFICATION_TYPE":"U","NORAD_CAT_ID":51654,"ELEMENT_SET_NO":999,"REV_AT_EPOCH":19630,"BSTAR":-0.0018287936,"MEAN_MOTION_DOT":-6.26e-6,"MEAN_MOTION_DDOT":0},{"OBJECT_NAME":"SL-14 DEB","OBJECT_ID":"1991-056AK","EPOCH":"2026-03-09T23:05:18.304224","MEAN_MOTION":13.20614644,"ECCENTRICITY":0.01266166,"INCLINATION":82.6085,"RA_OF_ASC_NODE":243.7939,"ARG_OF_PERICENTER":258.9775,"MEAN_ANOMALY":99.7087,"EPHEMERIS_TYPE":0,"CLASSIFICATION_TYPE":"U","NORAD_CAT_ID":45297,"ELEMENT_SET_NO":999,"REV_AT_EPOCH":28963,"BSTAR":0.014957784,"MEAN_MOTION_DOT":6.343e-5,"MEAN_MOTION_DDOT":0}]
